{
  "version": 0.6,
  "generator": "Overpass API 0.7.62.10 2d4cfc48",
  "osm3s": {
    "timestamp_osm_base": "2026-02-03T18:33:26Z",
    "copyright": "The data included in this document is from www.openstreetmap.org. The data is made available under ODbL."
  },
  "elements": [

{
  "type": "node",
  "id": 313610658,
  "lat": 28.3875633,
  "lon": -81.5366652,
  "tags": {
    "leisure": "fishing"
  }
},
{
  "type": "node",
  "id": 659784462,
  "lat": 22.6791695,
  "lon": -82.1390846,
  "tags": {
    "leisure": "fishing"
  }
},
{
  "type": "node",
  "id": 659784902,
  "lat": 22.6893453,
  "lon": -82.1332370,
  "tags": {
    "leisure": "fishing"
  }
},
{
  "type": "node",
  "id": 821998916,
  "lat": 23.6496838,
  "lon": -75.3582001,
  "tags": {
    "addr:country": "BS",
    "is_in": "Long Island, Bahamas",
    "leisure": "fishing",
    "name": "Grouper Valleys"
  }
},
{
  "type": "node",
  "id": 821998917,
  "lat": 22.9011163,
  "lon": -74.8151452,
  "tags": {
    "addr:country": "BS",
    "is_in": "Long Island, Bahamas",
    "leisure": "fishing",
    "name": "Grandpa Grouper"
  }
},
{
  "type": "node",
  "id": 821998918,
  "lat": 23.6981427,
  "lon": -75.3435344,
  "tags": {
    "addr:country": "BS",
    "is_in": "Long Island, Bahamas",
    "leisure": "fishing",
    "name": "Stella Maris Shark Reef"
  }
},
{
  "type": "node",
  "id": 822073236,
  "lat": 23.6245275,
  "lon": -74.8367084,
  "tags": {
    "addr:country": "BS",
    "is_in": "Rum Cay, Bahamas",
    "leisure": "fishing",
    "name": "Caroosel"
  }
},
{
  "type": "node",
  "id": 822073308,
  "lat": 23.6447465,
  "lon": -74.9294407,
  "tags": {
    "addr:country": "BS",
    "is_in": "Rum Cay, Bahamas",
    "leisure": "fishing",
    "name": "Snow Field"
  }
},
{
  "type": "node",
  "id": 822073343,
  "lat": 23.6175605,
  "lon": -74.7916405,
  "tags": {
    "addr:country": "BS",
    "is_in": "Rum Cay, Bahamas",
    "leisure": "fishing",
    "name": "The Chimney"
  }
},
{
  "type": "node",
  "id": 1292494173,
  "lat": 27.9961919,
  "lon": -81.9428211,
  "tags": {
    "leisure": "fishing"
  }
},
{
  "type": "node",
  "id": 1627454220,
  "lat": 28.8805891,
  "lon": -82.6191927,
  "tags": {
    "leisure": "fishing"
  }
},
{
  "type": "node",
  "id": 1627454308,
  "lat": 28.8822580,
  "lon": -82.6144205,
  "tags": {
    "leisure": "fishing"
  }
},
{
  "type": "node",
  "id": 2215641590,
  "lat": 27.9406800,
  "lon": -82.4498570,
  "tags": {
    "leisure": "fishing",
    "name": "Pat's Hole"
  }
},
{
  "type": "node",
  "id": 2433399579,
  "lat": 20.3298129,
  "lon": -77.1539881,
  "tags": {
    "leisure": "fishing"
  }
},
{
  "type": "node",
  "id": 3635022546,
  "lat": 22.4287864,
  "lon": -78.2697678,
  "tags": {
    "access": "yes",
    "fishing": "yes",
    "leisure": "fishing",
    "note": "Für Fliegenfischer: Du kannst gut neben der Straße parken und hier bestens bei auflaufenden Wasser mit der Fliege fischen. Barracuda, Snapper, ..... Tight Lines"
  }
},
{
  "type": "node",
  "id": 3635022550,
  "lat": 22.4289568,
  "lon": -78.2697794,
  "tags": {
    "access": "yes",
    "fishing": "yes",
    "leisure": "fishing"
  }
},
{
  "type": "node",
  "id": 3659516931,
  "lat": 29.3989357,
  "lon": -83.2054614,
  "tags": {
    "leisure": "fishing"
  }
},
{
  "type": "node",
  "id": 3913853547,
  "lat": 26.5960203,
  "lon": -78.4358064,
  "tags": {
    "leisure": "fishing",
    "name": "North Riding Point Club",
    "website": "https://nrpcbonefishing.com/"
  }
},
{
  "type": "node",
  "id": 5216353622,
  "lat": 22.9880925,
  "lon": -82.6387446,
  "tags": {
    "leisure": "fishing",
    "name": "Buena pesca",
    "name:en": "good fishing"
  }
},
{
  "type": "node",
  "id": 5294004557,
  "lat": 29.5733577,
  "lon": -81.1895516,
  "tags": {
    "leisure": "fishing"
  }
},
{
  "type": "node",
  "id": 5294833650,
  "lat": 29.5767872,
  "lon": -81.1945748,
  "tags": {
    "leisure": "fishing"
  }
},
{
  "type": "node",
  "id": 5294833651,
  "lat": 29.5771436,
  "lon": -81.1947285,
  "tags": {
    "leisure": "fishing"
  }
},
{
  "type": "node",
  "id": 5294887912,
  "lat": 26.9602740,
  "lon": -82.3642083,
  "tags": {
    "leisure": "fishing"
  }
},
{
  "type": "node",
  "id": 5294887913,
  "lat": 26.9602369,
  "lon": -82.3638059,
  "tags": {
    "leisure": "fishing"
  }
},
{
  "type": "node",
  "id": 5313671863,
  "lat": 29.5803111,
  "lon": -81.2034414,
  "tags": {
    "leisure": "fishing"
  }
},
{
  "type": "node",
  "id": 5354761323,
  "lat": 27.0101534,
  "lon": -82.4103919,
  "tags": {
    "leisure": "fishing",
    "name": "Manasota Lemon Bay Fishing Dock"
  }
},
{
  "type": "node",
  "id": 5354761324,
  "lat": 27.0100077,
  "lon": -82.4106360,
  "tags": {
    "leisure": "fishing",
    "name": "Manasota Lemon Bay Fishing Dock"
  }
},
{
  "type": "node",
  "id": 5354761325,
  "lat": 27.0099933,
  "lon": -82.4106923,
  "tags": {
    "leisure": "fishing",
    "name": "Manasota Lemon Bay Fishing Dock"
  }
},
{
  "type": "node",
  "id": 5354761326,
  "lat": 27.0099192,
  "lon": -82.4109015,
  "tags": {
    "leisure": "fishing",
    "name": "Manasota Lemon Bay Fishing Dock"
  }
},
{
  "type": "node",
  "id": 5354820732,
  "lat": 26.9623323,
  "lon": -82.3661891,
  "tags": {
    "leisure": "fishing",
    "name": "Lemon Bay Fishing"
  }
},
{
  "type": "node",
  "id": 6224236629,
  "lat": 22.4002355,
  "lon": -83.6796319,
  "tags": {
    "leisure": "fishing"
  }
},
{
  "type": "node",
  "id": 6284920627,
  "lat": 22.5048734,
  "lon": -79.6993743,
  "tags": {
    "leisure": "fishing",
    "name": "Presa Barroso"
  }
},
{
  "type": "node",
  "id": 6597155893,
  "lat": 21.7244384,
  "lon": -77.1907909,
  "tags": {
    "leisure": "fishing",
    "name": "Zona de Pesca"
  }
},
{
  "type": "node",
  "id": 6597182131,
  "lat": 21.4969967,
  "lon": -77.2073052,
  "tags": {
    "leisure": "fishing",
    "name": "Zona de Pesca"
  }
},
{
  "type": "node",
  "id": 6597184731,
  "lat": 21.5796603,
  "lon": -76.9938477,
  "tags": {
    "leisure": "fishing",
    "name": "Zona de Pesca"
  }
},
{
  "type": "node",
  "id": 6597190115,
  "lat": 21.5772510,
  "lon": -77.2573608,
  "tags": {
    "leisure": "fishing",
    "name": "Zona de Pesca"
  }
},
{
  "type": "node",
  "id": 6597191461,
  "lat": 21.7904511,
  "lon": -77.3308732,
  "tags": {
    "leisure": "fishing",
    "name": "Zona de Pesca"
  }
},
{
  "type": "node",
  "id": 6739225966,
  "lat": 22.3920484,
  "lon": -79.9133527,
  "tags": {
    "leisure": "fishing"
  }
},
{
  "type": "node",
  "id": 6910370214,
  "lat": 28.5604968,
  "lon": -81.6158136,
  "tags": {
    "leisure": "fishing"
  }
},
{
  "type": "node",
  "id": 6938347653,
  "lat": 21.1256581,
  "lon": -75.7467437,
  "tags": {
    "access": "yes",
    "leisure": "fishing",
    "name": "Los Corrales"
  }
},
{
  "type": "node",
  "id": 7105585962,
  "lat": 21.3700868,
  "lon": -76.7517295,
  "tags": {
    "leisure": "fishing",
    "name": "Los morrillos"
  }
},
{
  "type": "node",
  "id": 7202094868,
  "lat": 29.9061514,
  "lon": -81.4101486,
  "tags": {
    "leisure": "fishing"
  }
},
{
  "type": "node",
  "id": 7278012561,
  "lat": 27.8616592,
  "lon": -80.4448735,
  "tags": {
    "fishing": "yes",
    "leisure": "fishing"
  }
},
{
  "type": "node",
  "id": 8204061864,
  "lat": 26.6920043,
  "lon": -81.7772239,
  "tags": {
    "leisure": "fishing"
  }
},
{
  "type": "node",
  "id": 8248596164,
  "lat": 27.7736084,
  "lon": -82.6221923,
  "tags": {
    "leisure": "fishing",
    "name": "Fishing Deck"
  }
},
{
  "type": "node",
  "id": 8863143553,
  "lat": 29.9476057,
  "lon": -84.3415797,
  "tags": {
    "leisure": "fishing"
  }
},
{
  "type": "node",
  "id": 8863150436,
  "lat": 29.9478060,
  "lon": -84.3416122,
  "tags": {
    "leisure": "fishing"
  }
},
{
  "type": "node",
  "id": 9512897617,
  "lat": 28.8018311,
  "lon": -81.3827543,
  "tags": {
    "leisure": "fishing",
    "name": "Fishing dock"
  }
},
{
  "type": "node",
  "id": 9592754587,
  "lat": 26.7823457,
  "lon": -81.7559913,
  "tags": {
    "fishing": "yes",
    "leisure": "fishing"
  }
},
{
  "type": "node",
  "id": 9669809677,
  "lat": 25.7433293,
  "lon": -80.3329688,
  "tags": {
    "addr:city": "Miami",
    "addr:country": "US",
    "addr:full": "8451 SW 28th St",
    "addr:postcode": "33155",
    "addr:state": "FL",
    "leisure": "fishing",
    "name": "Captain Planet Charters LLC",
    "opening_hours": "24/7",
    "phone": "+1-305-502-5349",
    "website": "https://captainplanetcharters.com"
  }
},
{
  "type": "node",
  "id": 9697665864,
  "lat": 29.1369310,
  "lon": -83.0302270,
  "tags": {
    "addr:city": "Cedar Key",
    "addr:housenumber": "8070",
    "addr:postcode": "32625",
    "addr:state": "FL",
    "addr:street": "A Street",
    "leisure": "fishing",
    "name": "Tides Turn Fishing Charters",
    "opening_hours": "Mo-Su 08:00-20:00",
    "payment:cash": "yes",
    "phone": "+1-904-796-7758",
    "website": "https://tidesturncharters.net"
  }
},
{
  "type": "node",
  "id": 10027573869,
  "lat": 26.9963833,
  "lon": -81.9678608,
  "tags": {
    "leisure": "fishing"
  }
},
{
  "type": "node",
  "id": 10721098670,
  "lat": 28.2928689,
  "lon": -81.3967651,
  "tags": {
    "leisure": "fishing",
    "name": "Brinson Park Fishing Spot"
  }
},
{
  "type": "node",
  "id": 10724733085,
  "lat": 26.5315687,
  "lon": -80.0540652,
  "tags": {
    "access": "yes",
    "fishing": "yes",
    "leisure": "fishing"
  }
},
{
  "type": "node",
  "id": 10727868785,
  "lat": 27.7895001,
  "lon": -80.5105135,
  "tags": {
    "leisure": "fishing"
  }
},
{
  "type": "node",
  "id": 10732650563,
  "lat": 26.7835445,
  "lon": -80.0442312,
  "tags": {
    "leisure": "fishing"
  }
},
{
  "type": "node",
  "id": 10775855718,
  "lat": 26.6457017,
  "lon": -82.0464706,
  "tags": {
    "addr:city": "Cape Coral",
    "addr:housenumber": "3420",
    "addr:postcode": "33991",
    "addr:state": "FL",
    "addr:street": "SW 3rd Terrace",
    "leisure": "fishing",
    "name": "All 4 Chuck Fishing Charters LLC",
    "note": "please check position, could be SEO SPAM",
    "opening_hours": "Mo-Su 07:00-23:00",
    "operator": "Al Harrington",
    "payment:american_express": "yes",
    "payment:cash": "yes",
    "payment:discover_card": "yes",
    "payment:mastercard": "yes",
    "payment:visa": "yes",
    "phone": "+1-239-940-4901",
    "website": "https://all4chuckfishingcharters.com"
  }
},
{
  "type": "node",
  "id": 11142785575,
  "lat": 24.5708455,
  "lon": -81.7466723,
  "tags": {
    "addr:city": "Key West",
    "addr:state": "FL",
    "addr:street": "5130 Overseas Hwy",
    "country": "US",
    "leisure": "fishing",
    "name": "Captain Rios Charters",
    "opening_hours": "24/7",
    "payment:american_express": "yes",
    "payment:cash": "yes",
    "payment:discover_card": "yes",
    "payment:mastercard": "yes",
    "payment:visa": "yes",
    "phone": "+1-305-394-1278",
    "postal_code": "33040",
    "website": "https://captainrioscharters.com"
  }
},
{
  "type": "node",
  "id": 11387949524,
  "lat": 28.8192411,
  "lon": -81.4292345,
  "tags": {
    "access": "yes",
    "fishing": "yes",
    "leisure": "fishing",
    "name": "Bear Pond Dock"
  }
},
{
  "type": "node",
  "id": 11415414707,
  "lat": 27.2615910,
  "lon": -80.3587489,
  "tags": {
    "leisure": "fishing"
  }
},
{
  "type": "node",
  "id": 11885060233,
  "lat": 26.6103215,
  "lon": -82.0294575,
  "tags": {
    "access": "private",
    "leisure": "fishing",
    "name": "Calypso Park Fishing Pier"
  }
},
{
  "type": "node",
  "id": 11926817207,
  "lat": 28.1510018,
  "lon": -82.7286435,
  "tags": {
    "leisure": "fishing"
  }
},
{
  "type": "node",
  "id": 11926989903,
  "lat": 28.1003633,
  "lon": -82.6879495,
  "tags": {
    "leisure": "fishing"
  }
},
{
  "type": "node",
  "id": 11928371590,
  "lat": 28.1508283,
  "lon": -82.7286743,
  "tags": {
    "leisure": "fishing"
  }
},
{
  "type": "node",
  "id": 11928371593,
  "lat": 28.1409530,
  "lon": -82.7666824,
  "tags": {
    "leisure": "fishing"
  }
},
{
  "type": "node",
  "id": 11928371594,
  "lat": 28.1402091,
  "lon": -82.7644988,
  "tags": {
    "leisure": "fishing"
  }
},
{
  "type": "node",
  "id": 11928372594,
  "lat": 28.1434109,
  "lon": -82.7657806,
  "tags": {
    "leisure": "fishing"
  }
},
{
  "type": "node",
  "id": 11942238401,
  "lat": 28.1420099,
  "lon": -82.7669388,
  "tags": {
    "leisure": "fishing"
  }
},
{
  "type": "node",
  "id": 11943101078,
  "lat": 28.1513909,
  "lon": -82.7282353,
  "tags": {
    "access": "yes",
    "leisure": "fishing"
  }
},
{
  "type": "node",
  "id": 11943101164,
  "lat": 28.1518855,
  "lon": -82.7279377,
  "tags": {
    "leisure": "fishing"
  }
},
{
  "type": "node",
  "id": 11943218086,
  "lat": 28.1351426,
  "lon": -82.7396364,
  "tags": {
    "leisure": "fishing",
    "outdoor": "leisure"
  }
},
{
  "type": "node",
  "id": 11943218087,
  "lat": 28.1339902,
  "lon": -82.7383113,
  "tags": {
    "leisure": "fishing",
    "outdoor": "leisure"
  }
},
{
  "type": "node",
  "id": 11943218088,
  "lat": 28.1376575,
  "lon": -82.7521059,
  "tags": {
    "leisure": "fishing",
    "outdoor": "leisure"
  }
},
{
  "type": "node",
  "id": 11943218089,
  "lat": 28.1318692,
  "lon": -82.7350653,
  "tags": {
    "leisure": "fishing"
  }
},
{
  "type": "node",
  "id": 11943218090,
  "lat": 28.1340345,
  "lon": -82.7343335,
  "tags": {
    "leisure": "fishing"
  }
},
{
  "type": "node",
  "id": 11943218092,
  "lat": 28.1329764,
  "lon": -82.7374867,
  "tags": {
    "leisure": "fishing"
  }
},
{
  "type": "node",
  "id": 11943218093,
  "lat": 28.1361819,
  "lon": -82.7397192,
  "tags": {
    "leisure": "fishing",
    "outdoor": "leisure"
  }
},
{
  "type": "node",
  "id": 11943218094,
  "lat": 28.1328119,
  "lon": -82.7359997,
  "tags": {
    "leisure": "fishing"
  }
},
{
  "type": "node",
  "id": 11947052561,
  "lat": 28.1630683,
  "lon": -82.7401247,
  "tags": {
    "leisure": "fishing",
    "outdoor": "leisure"
  }
},
{
  "type": "node",
  "id": 11947068250,
  "lat": 28.1570049,
  "lon": -82.7401598,
  "tags": {
    "leisure": "fishing",
    "outdoor": "leisure"
  }
},
{
  "type": "node",
  "id": 11947068251,
  "lat": 28.1585713,
  "lon": -82.7401179,
  "tags": {
    "leisure": "fishing",
    "outdoor": "leisure"
  }
},
{
  "type": "node",
  "id": 11947068252,
  "lat": 28.1593864,
  "lon": -82.7401716,
  "tags": {
    "leisure": "fishing",
    "outdoor": "leisure"
  }
},
{
  "type": "node",
  "id": 11948203525,
  "lat": 28.1761102,
  "lon": -82.7486597,
  "tags": {
    "leisure": "fishing"
  }
},
{
  "type": "node",
  "id": 11948203527,
  "lat": 28.1762907,
  "lon": -82.7499748,
  "tags": {
    "leisure": "fishing"
  }
},
{
  "type": "node",
  "id": 11948203528,
  "lat": 28.1768940,
  "lon": -82.7511369,
  "tags": {
    "leisure": "fishing"
  }
},
{
  "type": "node",
  "id": 12214663236,
  "lat": 28.8248024,
  "lon": -82.6576487,
  "tags": {
    "access": "yes",
    "fishing": "yes",
    "leisure": "fishing"
  }
},
{
  "type": "node",
  "id": 12214706329,
  "lat": 28.8243026,
  "lon": -82.6564276,
  "tags": {
    "access": "yes",
    "fishing": "yes",
    "leisure": "fishing"
  }
},
{
  "type": "node",
  "id": 12508625517,
  "lat": 25.9881450,
  "lon": -81.5938976,
  "tags": {
    "leisure": "fishing"
  }
},
{
  "type": "node",
  "id": 12511140307,
  "lat": 25.9386351,
  "lon": -81.4612025,
  "tags": {
    "leisure": "fishing"
  }
},
{
  "type": "node",
  "id": 12512895536,
  "lat": 25.7614670,
  "lon": -80.5031168,
  "tags": {
    "leisure": "fishing"
  }
},
{
  "type": "node",
  "id": 12573218007,
  "lat": 21.0670989,
  "lon": -75.6645876,
  "tags": {
    "fishing": "permit",
    "leisure": "fishing",
    "name": "1er Corral"
  }
},
{
  "type": "node",
  "id": 12637769534,
  "lat": 26.7050015,
  "lon": -81.9395980,
  "tags": {
    "access": "yes",
    "leisure": "fishing"
  }
},
{
  "type": "node",
  "id": 13013815551,
  "lat": 26.1188670,
  "lon": -80.1060527,
  "tags": {
    "address": "301 Seabreeze Blvd, Fort Lauderdale, FL, 33316",
    "booking": "https://book.peek.com/s/d3f008ae-6cd5-4063-848d-9a093692d463/Wjdv7",
    "contact:facebook": "https://www.facebook.com/profile.php?id=61573984520409",
    "contact:instagram": "https://www.instagram.com/dont_tell_mom_sportfishing/",
    "contact:phone": "+1-954-522-9399",
    "contact:tripadvisor": "https://www.tripadvisor.com/Attraction_Review-g34227-d33057395-Reviews-Don_t_Tell_Mom_Sportfishing-Fort_Lauderdale_Broward_County_Florida.html",
    "contact:website": "https://donttellmomsportfishing.com/",
    "leisure": "fishing",
    "name": "Don't Tell Mom Sportfishing",
    "opening_hours": "24/7"
  }
},
{
  "type": "node",
  "id": 13414180482,
  "lat": 29.4950420,
  "lon": -82.1286285,
  "tags": {
    "leisure": "fishing",
    "name": "Lochloosa Wildlife Area Fishing Dock"
  }
},
{
  "type": "node",
  "id": 13421998472,
  "lat": 29.6109580,
  "lon": -82.2481867,
  "tags": {
    "access": "yes",
    "fishing": "yes",
    "leisure": "fishing",
    "name": "Prarie Creek trail bridge",
    "website": "https://www.floridastateparks.org/parks-and-trails/gainesville-hawthorne-state-trail/experiences-amenities"
  }
},
{
  "type": "node",
  "id": 13422024614,
  "lat": 29.6181407,
  "lon": -82.2507183,
  "tags": {
    "access": "yes",
    "fishing": "yes",
    "leisure": "fishing",
    "name": "Earl P Powers Park pier"
  }
}

  ]
}
